NORAD_CAT_ID,OBJECT_NAME,OBJECT_TYPE,EPOCH,MEAN_MOTION,ECCENTRICITY,INCLINATION,RA_OF_ASC_NODE,ARG_OF_PERICENTER,MEAN_ANOMALY,BSTAR,MEAN_MOTION_DOT,MEAN_MOTION_DDOT,TLE_LINE0,TLE_LINE1,TLE_LINE2,SEMIMAJOR_AXIS,PERIOD,APOGEE,PERIGEE,DECAYED
53431.0,STARLINK-4548,PAYLOAD,2022-10-07 06:00:00,15.73262303,0.0004146,53.2165,320.7346,4.6118,323.4838,-0.00060664,-0.0008517999999999,0.0,0 STARLINK-4548,1 53431U 22097AV  22280.25001157 -.00085180  00000-0 -60664-3 0  9990,2 53431  53.2165 320.7346 0004146   4.6118 323.4838 15.73262303  9563,6727.718000000003,91.53,352.372,346.793,0.0
53431.0,STARLINK-4548,PAYLOAD,2022-10-07 14:00:01,15.73167755,0.0004418999999999,53.2161,319.0865,2.4043,54.6628,0.00061656,0.00086723,0.0,0 STARLINK-4548,1 53431U 22097AV  22280.58334491  .00086723  00000-0  61656-3 0  9990,2 53431  53.2161 319.0865 0004419   2.4043  54.6628 15.73167755  1301,6727.986999999999,91.535,352.825,346.879,0.0
53431.0,STARLINK-4548,PAYLOAD,2022-10-07 22:00:00,15.73197507,0.0004152,53.2159,317.4351,1.1574,144.8389,-0.00010945,-0.00015962,0.0,0 STARLINK-4548,1 53431U 22097AV  22280.91667824 -.00015962  00000-0 -10945-3 0  9990,2 53431  53.2159 317.4351 0004152   1.1574 144.8389 15.73197507  1303,6727.901999999999,91.533,352.561,346.974,0.0
53431.0,STARLINK-4548,PAYLOAD,2022-10-08 14:00:01,15.73161821,0.0004406,53.2152,314.1382,1.1124,322.6969,0.00038555,0.00053769,0.0,0 STARLINK-4548,1 53431U 22097AV  22281.58334491  .00053769  00000-0  38555-3 0  9997,2 53431  53.2152 314.1382 0004406   1.1124 322.6969 15.73161821  1307,6728.004,91.535,352.833,346.905,0.0
53431.0,STARLINK-4548,PAYLOAD,2022-10-08 22:00:00,15.73161616,0.0004095,53.2157,312.4858,1.8914,50.8401,0.00040415,0.00056407,0.0,0 STARLINK-4548,1 53431U 22097AV  22281.91667824  .00056407  00000-0  40415-3 0  9993,2 53431  53.2157 312.4858 0004095   1.8914  50.8401 15.73161616  1302,6728.005,91.535,352.625,347.11400000000015,0.0
53431.0,STARLINK-4548,PAYLOAD,2022-10-09 06:00:00,15.73342516,0.0004022999999999,53.2165,310.8267,358.6325,142.9974,-0.0030872,-0.00416034,0.0,0 STARLINK-4548,1 53431U 22097AV  22282.25001157 -.00416034  00000-0 -30872-2 0  9995,2 53431  53.2165 310.8267 0004023 358.6325 142.9974 15.73342516  9886,6727.489000000001,91.525,352.06,346.647,0.0
53431.0,STARLINK-4548,PAYLOAD,2022-10-09 14:00:01,15.73156892,0.000362,53.2168,309.1713,328.1964,262.3552,-0.0069615,-0.00880272,0.0,0 STARLINK-4548,1 53431U 22097AV  22282.58334491 -.00880272  00000-0 -69615-2 0  9997,2 53431  53.2168 309.1713 0003620 328.1964 262.3552 15.73156892  9934,6728.018,91.536,352.319,347.4480000000001,0.0
53431.0,STARLINK-4548,PAYLOAD,2022-10-09 22:00:00,15.7252585,0.0005041,53.2174,307.5168,287.2328,31.8204,-0.0093208,-0.01135984,0.0,0 STARLINK-4548,1 53431U 22097AV  22282.91667824 -.01135984  00000-0 -93208-2 0  9992,2 53431  53.2174 307.5168 0005041 287.2328  31.8204 15.72525850  9986,6729.818,91.572,355.075,348.29,0.0
53431.0,STARLINK-4548,PAYLOAD,2022-10-10 14:00:01,15.70904834,0.0006048,53.2172,304.2270000000001,271.7043,221.5905,-0.010074,-0.01145318,0.0,0 STARLINK-4548,1 53431U 22097AV  22283.58334491 -.01145318  00000-0 -10074-1 0  9998,2 53431  53.2172 304.2270 0006048 271.7043 221.5905 15.70904834  1307,6734.446999999999,91.667,360.385,352.23900000000015,0.0
53431.0,STARLINK-4548,PAYLOAD,2022-10-10 22:00:01,15.7007321,0.0003268,53.2172,302.5819,268.4905,310.5333,-0.010143,-0.01115034,0.0,0 STARLINK-4548,1 53431U 22097AV  22283.91668981 -.01115034  00000-0 -10143-1 0  9998,2 53431  53.2172 302.5819 0003268 268.4905 310.5333 15.70073210 10149,6736.825,91.715,360.891,356.48800000000006,0.0
53431.0,STARLINK-4548,PAYLOAD,2022-10-11 14:00:01,15.68450402,8.45e-05,53.2172,299.3040000000001,85.0568,302.2771,-0.010908,-0.01137223,0.0,0 STARLINK-4548,1 53431U 22097AV  22284.58334491 -.01137223  00000-0 -10908-1 0  9991,2 53431  53.2172 299.3040 0000845  85.0568 302.2771 15.68450402  1305,6741.471,91.81,363.905,362.766,0.0
53431.0,STARLINK-4548,PAYLOAD,2022-10-11 22:00:00,15.67636567,0.0001122,53.2174,297.6651,61.8507,48.2066,-0.011292,-0.01138395,0.0,0 STARLINK-4548,1 53431U 22097AV  22284.91667824 -.01138395  00000-0 -11292-1 0  9995,2 53431  53.2174 297.6651 0001122  61.8507  48.2066 15.67636567 10301,6743.804,91.858,366.425,364.912,0.0
53431.0,STARLINK-4548,PAYLOAD,2022-10-12 14:00:01,15.66010477,0.0001219,53.2171,294.3988,57.835,214.7316,-0.012076,-0.01139239,0.0,0 STARLINK-4548,1 53431U 22097AV  22285.58334491 -.01139239  00000-0 -12076-1 0  9999,2 53431  53.2171 294.3988 0001219  57.8350 214.7316 15.66010477 10407,6748.471,91.953,371.159,369.514,0.0
53431.0,STARLINK-4548,PAYLOAD,2022-10-12 22:00:00,15.65193426,0.0001087,53.2172,292.766,57.8616,294.4965,-0.0124269999999999,-0.01134725,0.0,0 STARLINK-4548,1 53431U 22097AV  22285.91667824 -.01134725  00000-0 -12427-1 0  9990,2 53431  53.2172 292.7660 0001087  57.8616 294.4965 15.65193426  1304,6750.82,92.001,373.418,371.951,0.0
53431.0,STARLINK-4548,PAYLOAD,2022-10-13 06:00:00,15.64381895,0.000106,53.2173,291.1387,92.0439,339.1230000000001,-0.0128669999999999,-0.01137042,0.0,0 STARLINK-4548,1 53431U 22097AV  22286.25001157 -.01137042  00000-0 -12867-1 0  9992,2 53431  53.2173 291.1387 0001060  92.0439 339.1230 15.64381895 10512,6753.154,92.049,375.735,374.30300000000005,0.0
53431.0,STARLINK-4548,PAYLOAD,2022-10-13 14:00:01,15.63568629,0.0001159999999999,53.2172,289.5117,91.5059,57.4941,-0.0133,-0.01137812,0.0,0 STARLINK-4548,1 53431U 22097AV  22286.58334491 -.01137812  00000-0 -13300-1 0  9996,2 53431  53.2172 289.5117 0001160  91.5059  57.4941 15.63568629  1303,6755.496,92.097,378.144,376.577,0.0
53431.0,STARLINK-4548,PAYLOAD,2022-10-13 22:00:00,15.62753366,0.0001233,53.2173,287.8847,104.1643,121.6925,-0.013702,-0.01135298,0.0,0 STARLINK-4548,1 53431U 22097AV  22286.91667824 -.01135298  00000-0 -13702-1 0  9994,2 53431  53.2173 287.8847 0001233 104.1643 121.6925 15.62753366  1305,6757.845,92.145,380.543,378.877,0.0
53431.0,STARLINK-4548,PAYLOAD,2022-10-14 14:00:01,15.61126617,9.78e-05,53.2172,284.6421,94.7629,281.8699,-0.014597,-0.01134788,0.0,0 STARLINK-4548,1 53431U 22097AV  22287.58334491 -.01134788  00000-0 -14597-1 0  9995,2 53431  53.2172 284.6421 0000978  94.7629 281.8699 15.61126617  1309,6762.5390000000025,92.241,385.065,383.742,0.0
53431.0,STARLINK-4548,PAYLOAD,2022-10-14 16:00:00,15.60923206,0.0001146,53.2174,284.2365,90.7123,34.4927,-0.0147229999999999,-0.01135552,0.0,0 STARLINK-4548,1 53431U 22097AV  22287.66667824 -.01135552  00000-0 -14723-1 0  9994,2 53431  53.2174 284.2365 0001146  90.7123  34.4927 15.60923206 10738,6763.126,92.253,385.766,384.216,0.0
53431.0,STARLINK-4548,PAYLOAD,2022-10-14 22:00:00,15.60311615,0.0001097,53.2174,283.0212,95.3357,355.22,-0.015054,-0.01134042,0.0,0 STARLINK-4548,1 53431U 22097AV  22287.91667824 -.01134042  00000-0 -15054-1 0  9993,2 53431  53.2174 283.0212 0001097  95.3357 355.2200 15.60311615  1307,6764.893,92.289,387.5,386.016,0.0
53431.0,STARLINK-4548,PAYLOAD,2022-10-15 14:00:01,15.58686199,0.0001205999999999,53.2171,279.7904,94.5124,140.9514,-0.016061,-0.01136507,0.0,0 STARLINK-4548,1 53431U 22097AV  22288.58334491 -.01136507  00000-0 -16061-1 0  9995,2 53431  53.2171 279.7904 0001206  94.5124 140.9514 15.58686199  1305,6769.595,92.385,392.277,390.644,0.0
53431.0,STARLINK-4548,PAYLOAD,2022-10-15 22:00:01,15.57868694,0.0001095999999999,53.2173,278.1754,92.0762,214.4428,-0.016464,-0.01130021,0.0,0 STARLINK-4548,1 53431U 22097AV  22288.91668981 -.01130021  00000-0 -16464-1 0  9998,2 53431  53.2173 278.1754 0001096  92.0762 214.4428 15.57868694  1303,6771.9630000000025,92.434,394.571,393.086,0.0
53431.0,STARLINK-4548,PAYLOAD,2022-10-16 14:00:01,15.56242979,0.0001075,53.2173,274.9563,86.9972,358.4979,-0.017533,-0.01131765,0.0,0 STARLINK-4548,1 53431U 22097AV  22289.58334491 -.01131765  00000-0 -17533-1 0  9992,2 53431  53.2173 274.9563 0001075  86.9972 358.4979 15.56242979 11039,6776.679,92.531,399.272,397.815,0.0
53431.0,STARLINK-4548,PAYLOAD,2022-10-16 22:00:00,15.5542965,0.0001242,53.2175,273.3475,94.9199,58.6303,-0.018082,-0.01132335,0.0,0 STARLINK-4548,1 53431U 22097AV  22289.91667824 -.01132335  00000-0 -18082-1 0  9992,2 53431  53.2175 273.3475 0001242  94.9199  58.6303 15.55429650  1303,6779.041,92.579,401.74800000000016,400.064,0.0
53431.0,STARLINK-4548,PAYLOAD,2022-10-17 06:00:00,15.54614685,0.0001299,53.2176,271.7441,84.1513,136.4751,-0.018598,-0.01130245,0.0,0 STARLINK-4548,1 53431U 22097AV  22290.25001157 -.01130245  00000-0 -18598-1 0  9992,2 53431  53.2176 271.7441 0001299  84.1513 136.4751 15.54614685 11139,6781.41,92.627,404.156,402.394,0.0
53431.0,STARLINK-4548,PAYLOAD,2022-10-17 14:00:01,15.53802869,0.0001137999999999,53.2173,270.1398,80.3299,206.3952,-0.019225,-0.01133535,0.0,0 STARLINK-4548,1 53431U 22097AV  22290.58334491 -.01133535  00000-0 -19225-1 0  9991,2 53431  53.2173 270.1398 0001138  80.3299 206.3952 15.53802869  1301,6783.772,92.676,406.409,404.865,0.0
53431.0,STARLINK-4548,PAYLOAD,2022-10-17 22:00:00,15.52985456,0.0001091,53.2176,268.5372,103.3132,248.5346,-0.019678,-0.01126755,0.0,0 STARLINK-4548,1 53431U 22097AV  22290.91667824 -.01126755  00000-0 -19678-1 0  9995,2 53431  53.2176 268.5372 0001091 103.3132 248.5346 15.52985456  1305,6786.151999999999,92.725,408.757,407.277,0.0
53431.0,STARLINK-4548,PAYLOAD,2022-10-18 00:00:00,15.52783465,0.0001149,53.2177,268.1375,92.0097,5.9649,-0.019864,-0.01128856,0.0,0 STARLINK-4548,1 53431U 22097AV  22291.00001157 -.01128856  00000-0 -19864-1 0  9998,2 53431  53.2177 268.1375 0001149  92.0097   5.9649 15.52783465 11255,6786.74,92.737,409.385,407.826,0.0
53431.0,STARLINK-4548,PAYLOAD,2022-10-18 14:00:01,15.51361958,0.0001118,53.2173,265.3412,86.7874,32.3673,-0.021029,-0.01134458,0.0,0 STARLINK-4548,1 53431U 22097AV  22291.58334491 -.01134458  00000-0 -21029-1 0  9992,2 53431  53.2173 265.3412 0001118  86.7874  32.3673 15.51361958  1305,6790.886,92.822,413.51,411.991,0.0
